IRIDIUM 921             
1 24873U 97034E   24122.79389666  .00026259  00000+0  74410-3 0  9994
2 24873  86.3798 311.0411 0005369  79.7130 280.4727 15.36116410468059
IRIDIUM 26              
1 24903U 97043A   24122.72342716  .00000699  00000+0  23241-3 0  9992
2 24903  86.3913 283.2597 0002188  86.6688 273.4759 14.36318023397666
IRIDIUM 22              
1 24907U 97043E   24122.74316899  .00000677  00000+0  23021-3 0  9993
2 24907  86.3915 286.4540 0002121  92.6886 267.4553 14.35208414397744
DUMMY MASS 1            
1 24925U 97048A   24122.80278419  .00000584  00000+0  63326-4 0  9990
2 24925  86.3326 325.4362 0007826 147.3329 212.8381 14.86165924444013
DUMMY MASS 2            
1 24926U 97048B   24122.83186996  .00000594  00000+0  64860-4 0  9997
2 24926  86.3328 326.9577 0008174 158.5198 201.6371 14.85924781444046
IRIDIUM 29              
1 24944U 97051A   24122.83024092  .00000563  00000+0  18832-3 0  9992
2 24944  86.3926 316.3540 0002239  95.5623 264.5829 14.35660411394459
IRIDIUM 33              
1 24946U 97051C   24122.81368772  .00000398  00000+0  13463-3 0  9999
2 24946  86.3839 315.6154 0007509 357.0348   3.0802 14.34330685393768
IRIDIUM 28              
1 24948U 97051E   24122.79519510  .00000580  00000+0  19062-3 0  9990
2 24948  86.3927 314.1187 0002163  78.2007 281.9432 14.36610291394766
